{
  "norad_id": 47321,
  "name": "TIANTONG-1 3",
  "history": [
    {
      "epoch": "2026-03-28T22:01:08.976000Z",
      "apogee_km": 35800.99280688099,
      "perigee_km": 35773.14859032514,
      "latitude_deg": -1.7996065425413628,
      "longitude_deg": 81.49485202373006,
      "height_km": 35794.917452231806,
      "semi_major_axis_km": 42165.207698603066,
      "eccentricity": 0.00033018,
      "inclination_deg": 1.8282,
      "raan_deg": 334.5274,
      "arg_perigee_deg": 29.0257,
      "mean_anomaly_deg": 234.5658,
      "mean_motion_rev_day": 1.00270088
    },
    {
      "epoch": "2026-03-29T04:00:02.672640Z",
      "apogee_km": 35801.0439181794,
      "perigee_km": 35773.1389699951,
      "latitude_deg": -0.19300234140661035,
      "longitude_deg": 81.50674688318911,
      "height_km": 35775.243962452885,
      "semi_major_axis_km": 42165.22844408725,
      "eccentricity": 0.0003309,
      "inclination_deg": 1.8284,
      "raan_deg": 334.5286,
      "arg_perigee_deg": 29.4548,
      "mean_anomaly_deg": 324.1028,
      "mean_motion_rev_day": 1.00270014
    },
    {
      "epoch": "2026-03-30T03:06:42.650784Z",
      "apogee_km": 35801.114278360394,
      "perigee_km": 35773.11570773197,
      "latitude_deg": -0.5739461434083389,
      "longitude_deg": 81.49862400603773,
      "height_km": 35777.58671390133,
      "semi_major_axis_km": 42165.251993046186,
      "eccentricity": 0.00033201,
      "inclination_deg": 1.8274,
      "raan_deg": 334.5828,
      "arg_perigee_deg": 30.8826,
      "mean_anomaly_deg": 310.2306,
      "mean_motion_rev_day": 1.0026993
    },
    {
      "epoch": "2026-03-30T08:14:43.107936Z",
      "apogee_km": 35801.170370084816,
      "perigee_km": 35773.049523591035,
      "latitude_deg": 1.5448972684992575,
      "longitude_deg": 81.52300443767862,
      "height_km": 35773.85612553578,
      "semi_major_axis_km": 42165.24694683793,
      "eccentricity": 0.00033346,
      "inclination_deg": 1.8268,
      "raan_deg": 334.607,
      "arg_perigee_deg": 31.0727,
      "mean_anomaly_deg": 27.2279,
      "mean_motion_rev_day": 1.00269948
    },
    {
      "epoch": "2026-04-01T19:43:38.690976Z",
      "apogee_km": 35801.56304794309,
      "perigee_km": 35772.67478780864,
      "latitude_deg": -1.4501341074029865,
      "longitude_deg": 81.47291931197942,
      "height_km": 35800.702676563706,
      "semi_major_axis_km": 42165.25591787587,
      "eccentricity": 0.00034256,
      "inclination_deg": 1.8242,
      "raan_deg": 334.7578,
      "arg_perigee_deg": 35.8604,
      "mean_anomaly_deg": 196.95,
      "mean_motion_rev_day": 1.00269916
    },
    {
      "epoch": "2026-04-04T09:45:04.384800Z",
      "apogee_km": 35799.78694991298,
      "perigee_km": 35772.19474464972,
      "latitude_deg": 1.8057217622230775,
      "longitude_deg": 81.54187257174011,
      "height_km": 35774.59743799139,
      "semi_major_axis_km": 42164.12784728135,
      "eccentricity": 0.0003272,
      "inclination_deg": 1.8217,
      "raan_deg": 335.0569,
      "arg_perigee_deg": 45.8361,
      "mean_anomaly_deg": 39.6093,
      "mean_motion_rev_day": 1.0027394
    },
    {
      "epoch": "2026-04-05T14:57:30.038112Z",
      "apogee_km": 35799.89998563893,
      "perigee_km": 35772.16861017629,
      "latitude_deg": 0.4533974772817018,
      "longitude_deg": 81.56591272168836,
      "height_km": 35792.61311474965,
      "semi_major_axis_km": 42164.17129790761,
      "eccentricity": 0.00032885,
      "inclination_deg": 1.8207,
      "raan_deg": 334.9492,
      "arg_perigee_deg": 44.0575,
      "mean_anomaly_deg": 120.8106,
      "mean_motion_rev_day": 1.00273785
    },
    {
      "epoch": "2026-04-05T21:12:21.580704Z",
      "apogee_km": 35799.91471271538,
      "perigee_km": 35772.179112537655,
      "latitude_deg": -1.7803200812306215,
      "longitude_deg": 81.50100579232503,
      "height_km": 35797.30460189182,
      "semi_major_axis_km": 42164.18391262652,
      "eccentricity": 0.0003289,
      "inclination_deg": 1.8202,
      "raan_deg": 334.9682,
      "arg_perigee_deg": 44.5597,
      "mean_anomaly_deg": 214.2627,
      "mean_motion_rev_day": 1.0027374
    },
    {
      "epoch": "2026-04-06T05:23:38.776704Z",
      "apogee_km": 35799.908476646706,
      "perigee_km": 35772.22851902148,
      "latitude_deg": 0.6940398044509852,
      "longitude_deg": 81.50322881764475,
      "height_km": 35772.696983194444,
      "semi_major_axis_km": 42164.2054978341,
      "eccentricity": 0.00032824,
      "inclination_deg": 1.8201,
      "raan_deg": 334.9876,
      "arg_perigee_deg": 45.2357,
      "mean_anomaly_deg": 336.7272,
      "mean_motion_rev_day": 1.00273663
    },
    {
      "epoch": "2026-04-07T14:45:48.144384Z",
      "apogee_km": 35799.96579162722,
      "perigee_km": 35772.19475156345,
      "latitude_deg": 0.4876718893774589,
      "longitude_deg": 81.57980615914468,
      "height_km": 35791.569686796,
      "semi_major_axis_km": 42164.217271595335,
      "eccentricity": 0.00032932,
      "inclination_deg": 1.819,
      "raan_deg": 335.0511,
      "arg_perigee_deg": 48.1223,
      "mean_anomaly_deg": 115.6968,
      "mean_motion_rev_day": 1.00273621
    },
    {
      "epoch": "2026-04-07T19:53:49.659936Z",
      "apogee_km": 35799.99921020597,
      "perigee_km": 35772.187683803124,
      "latitude_deg": -1.5921281782743102,
      "longitude_deg": 81.5190120545704,
      "height_km": 35799.438873856336,
      "semi_major_axis_km": 42164.23044700455,
      "eccentricity": 0.0003298,
      "inclination_deg": 1.8184,
      "raan_deg": 335.0762,
      "arg_perigee_deg": 48.492,
      "mean_anomaly_deg": 192.5206,
      "mean_motion_rev_day": 1.00273574
    },
    {
      "epoch": "2026-04-08T13:00:37.985184Z",
      "apogee_km": 35800.00295238422,
      "perigee_km": 35772.22767281581,
      "latitude_deg": 1.1896097960518395,
      "longitude_deg": 81.59525651882281,
      "height_km": 35785.17975459936,
      "semi_major_axis_km": 42164.252312600016,
      "eccentricity": 0.00032937,
      "inclination_deg": 1.8181,
      "raan_deg": 335.0984,
      "arg_perigee_deg": 49.6277,
      "mean_anomaly_deg": 88.7711,
      "mean_motion_rev_day": 1.00273496
    },
    {
      "epoch": "2026-04-09T18:06:15.448608Z",
      "apogee_km": 35800.11203049831,
      "perigee_km": 35772.22455897638,
      "latitude_deg": -1.0739084507747705,
      "longitude_deg": 81.54572513076607,
      "height_km": 35799.309744505,
      "semi_major_axis_km": 42164.30529473735,
      "eccentricity": 0.0003307,
      "inclination_deg": 1.8171,
      "raan_deg": 335.1713,
      "arg_perigee_deg": 51.2905,
      "mean_anomaly_deg": 164.643,
      "mean_motion_rev_day": 1.00273307
    },
    {
      "epoch": "2026-04-10T12:55:38.311968Z",
      "apogee_km": 35800.18893691524,
      "perigee_km": 35772.24240396527,
      "latitude_deg": 1.1734841443730917,
      "longitude_deg": 81.60397291562835,
      "height_km": 35784.81991376618,
      "semi_major_axis_km": 42164.352670440254,
      "eccentricity": 0.0003314,
      "inclination_deg": 1.8166,
      "raan_deg": 335.1979,
      "arg_perigee_deg": 52.1704,
      "mean_anomaly_deg": 86.8578,
      "mean_motion_rev_day": 1.00273138
    },
    {
      "epoch": "2026-04-11T19:43:41.623392Z",
      "apogee_km": 35800.287145681614,
      "perigee_km": 35772.28996711216,
      "latitude_deg": -1.6039730124941554,
      "longitude_deg": 81.53803296290496,
      "height_km": 35799.89652962715,
      "semi_major_axis_km": 42164.42555639689,
      "eccentricity": 0.000332,
      "inclination_deg": 1.8151,
      "raan_deg": 335.288,
      "arg_perigee_deg": 53.6481,
      "mean_anomaly_deg": 188.5736,
      "mean_motion_rev_day": 1.00272878
    },
    {
      "epoch": "2026-04-12T23:06:29.496960Z",
      "apogee_km": 35800.39757249144,
      "perigee_km": 35772.33372281921,
      "latitude_deg": -1.6409044371371233,
      "longitude_deg": 81.53350766203435,
      "height_km": 35793.32523931454,
      "semi_major_axis_km": 42164.502647655325,
      "eccentricity": 0.00033279,
      "inclination_deg": 1.8142,
      "raan_deg": 335.3382,
      "arg_perigee_deg": 55.0158,
      "mean_anomaly_deg": 238.9821,
      "mean_motion_rev_day": 1.00272603
    },
    {
      "epoch": "2026-04-14T20:22:41.507328Z",
      "apogee_km": 35800.376799911835,
      "perigee_km": 35772.68304667662,
      "latitude_deg": -1.7433729383106555,
      "longitude_deg": 81.53376461771973,
      "height_km": 35799.50521291676,
      "semi_major_axis_km": 42164.66692329423,
      "eccentricity": 0.0003284,
      "inclination_deg": 1.8124,
      "raan_deg": 335.449,
      "arg_perigee_deg": 57.0345,
      "mean_anomaly_deg": 197.7617,
      "mean_motion_rev_day": 1.00272017
    },
    {
      "epoch": "2026-04-15T21:12:26.406144Z",
      "apogee_km": 35800.20372332499,
      "perigee_km": 35773.02432481487,
      "latitude_deg": -1.8013773780390991,
      "longitude_deg": 81.5293841619421,
      "height_km": 35798.091872067256,
      "semi_major_axis_km": 42164.75102406993,
      "eccentricity": 0.0003223,
      "inclination_deg": 1.8114,
      "raan_deg": 335.5085,
      "arg_perigee_deg": 57.5069,
      "mean_anomaly_deg": 210.6855,
      "mean_motion_rev_day": 1.00271717
    }
  ]
}